Horizons
*******************************************************************************
Target body name: Oberon (704)                    {source: ura111}
Center body name: Uranus Barycenter (7)           {source: DE431mx}
Center-site name: BODY CENTER
*******************************************************************************
Start time      : A.D. 2020-Jun-13 00:00:00.0000 TDB
Stop  time      : A.D. 2020-Jun-27 00:00:00.0000 TDB
Step-size       : 1440 minutes
*******************************************************************************
Center geodetic : 0.00000000,0.00000000,0.0000000 {E-lon(deg),Lat(deg),Alt(km)}
Center cylindric: 0.00000000,0.00000000,0.0000000 {E-lon(deg),Dxy(km),Dz(km)}
Center radii    : (undefined)                                                  
Output units    : KM-D
Output type     : GEOMETRIC cartesian states
Output format   : 3 (position, velocity, LT, range, range-rate)
Reference frame : Ecliptic of J2000.0
*******************************************************************************
JDTDB
   X     Y     Z
   VX    VY    VZ
   LT    RG    RR
*******************************************************************************
$$SOE
2459013.500000000 = A.D. 2020-Jun-13 00:00:00.0000 TDB 
 X = 1.641661882452988E+05 Y =-1.136753576972665E+05 Z =-5.481883325937646E+05
 VX=-2.547292000053742E+05 VY= 4.322928268553887E+04 VZ=-8.589463749036727E+04
 LT= 2.252420812273942E-05 RG= 5.834235788023348E+05 RR= 6.074696764678730E+02
2459014.500000000 = A.D. 2020-Jun-14 00:00:00.0000 TDB 
 X =-9.895897040952719E+04 Y =-5.985242641740866E+04 Z =-5.724296706256162E+05
 VX=-2.619428306444633E+05 VY= 6.244936778441314E+04 VZ= 3.823806802511949E+04
 LT= 2.254629402903928E-05 RG= 5.839956494573539E+05 RR= 5.055550531895829E+02
2459015.500000000 = A.D. 2020-Jun-15 00:00:00.0000 TDB 
 X =-3.409770459957588E+05 Y = 6.742014721705345E+03 Z =-4.745407310024542E+05
 VX=-2.133308850251304E+05 VY= 6.832207329045322E+04 VZ= 1.539509906242720E+05
 LT= 2.256112343838060E-05 RG= 5.843797618320171E+05 RR= 2.490637075130390E+02
2459016.500000000 = A.D. 2020-Jun-16 00:00:00.0000 TDB 
 X =-5.104090060972762E+05 Y = 7.190882356663251E+04 Z =-2.755826975635040E+05
 VX=-1.194035396243427E+05 VY= 5.965028534457363E+04 VZ= 2.367416240777161E+05
 LT= 2.256556089339380E-05 RG= 5.844947010951632E+05 RR=-1.346729095666608E+01
2459017.500000000 = A.D. 2020-Jun-17 00:00:00.0000 TDB 
 X =-5.712541917423900E+05 Y = 1.217804356112579E+05 Z =-1.797532963613288E+04
 VX=-6.904355766027581E+01 VY= 3.828294462980592E+04 VZ= 2.691384374505515E+05
 LT= 2.256063562742604E-05 RG= 5.843671265193198E+05 RR=-2.332387116187617E+02
2459018.500000000 = A.D. 2020-Jun-18 00:00:00.0000 TDB 
 X =-5.104954174833677E+05 Y = 1.457279245081341E+05 Z = 2.434551794111533E+05
 VX= 1.194149619879304E+05 VY= 8.734897958030097E+03 VZ= 2.442294311200398E+05
 LT= 2.254833354455216E-05 RG= 5.840484771276125E+05 RR=-3.920091597323550E+02
2459019.500000000 = A.D. 2020-Jun-19 00:00:00.0000 TDB
